STARLINK-2393_new
1 17812C 21018AB  21326.18106854  .00002922  00000-0  19574-3 0  3269
2 17812  53.0545 102.9141 0001722  86.5301 330.7811 15.06401642    12
STARLINK-2393_old
1 27812C 21018AB  21325.09134492  .00001260  00000-0  84405-4 0  3256
2 27812  53.0545 107.8057 0001753  86.3895 178.0362 15.06397294    13
